NORAD_CAT_ID,OBJECT_NAME,OBJECT_TYPE,EPOCH,MEAN_MOTION,ECCENTRICITY,INCLINATION,RA_OF_ASC_NODE,ARG_OF_PERICENTER,MEAN_ANOMALY,BSTAR,MEAN_MOTION_DOT,MEAN_MOTION_DDOT,TLE_LINE0,TLE_LINE1,TLE_LINE2,SEMIMAJOR_AXIS,PERIOD,APOGEE,PERIGEE,DECAYED
53925.0,STARLINK-5011,PAYLOAD,2024-02-03 12:06:09,15.08847455,0.0001385,53.2171,148.7743,89.6749,270.4402,2.8714e-05,1.69e-06,0.0,0 STARLINK-5011,1 53925U 22119AR  24034.50427184  .00000169  00000-0  28714-4 0  9995,2 53925  53.2171 148.7743 0001385  89.6749 270.4402 15.08847455 75894,6917.858,95.437,540.681,538.764,0.0
53925.0,STARLINK-5011,PAYLOAD,2024-02-03 13:41:32,15.08848322,0.0001493,53.2168,148.477,87.5874,272.5289,4.6625e-05,4.54e-06,0.0,0 STARLINK-5011,1 53925U 22119AR  24034.57051147  .00000454  00000-0  46625-4 0  9992,2 53925  53.2168 148.4770 0001493  87.5874 272.5289 15.08848322 76322,6917.855,95.437,540.753,538.687,0.0
53925.0,STARLINK-5011,PAYLOAD,2024-02-03 16:52:18,15.0885249,0.0001395,53.2166,147.8809,86.8119,273.3033,9.9325e-05,1.294e-05,0.0,0 STARLINK-5011,1 53925U 22119AR  24034.70298839  .00001294  00000-0  99325-4 0  9996,2 53925  53.2166 147.8809 0001395  86.8119 273.3033 15.08852490 76340,6917.842,95.437,540.672,538.742,0.0
53925.0,STARLINK-5011,PAYLOAD,2024-02-04 11:56:56,15.08831862,0.0001441,53.2162,144.3121,96.7914,263.3242,0.00030011,4.49e-05,0.0,0 STARLINK-5011,1 53925U 22119AR  24035.49787788  .00004490  00000-0  30011-3 0  9996,2 53925  53.2162 144.3121 0001441  96.7914 263.3242 15.08831862 76048,6917.905,95.438,540.767,538.773,0.0
53925.0,STARLINK-5011,PAYLOAD,2024-02-04 13:32:19,15.08844644,0.0001567,53.2164,144.0118,69.9896,290.1265,1.6713e-05,-2.2e-07,0.0,0 STARLINK-5011,1 53925U 22119AR  24035.56411139 -.00000022  00000-0  16713-4 0  9990,2 53925  53.2164 144.0118 0001567  69.9896 290.1265 15.08844644 76475,6917.866,95.437,540.815,538.647,0.0
53925.0,STARLINK-5011,PAYLOAD,2024-02-05 13:23:06,15.08845785,0.0001405,53.2153,139.5522,84.0284,276.0869,0.00014618,2.04e-05,0.0,0 STARLINK-5011,1 53925U 22119AR  24036.55771127  .00002040  00000-0  14618-3 0  9998,2 53925  53.2153 139.5522 0001405  84.0284 276.0869 15.08845785 76628,6917.863,95.437,540.7,538.756,0.0
53925.0,STARLINK-5011,PAYLOAD,2024-02-06 11:38:30,15.08843561,0.000169,53.2167,135.3952,99.3491,260.7692,0.00012613,1.72e-05,0.0,0 STARLINK-5011,1 53925U 22119AR  24037.48507191  .00001720  00000-0  12613-3 0  9996,2 53925  53.2167 135.3952 0001690  99.3491 260.7692 15.08843561 76342,6917.87,95.437,540.904,538.565,0.0
53925.0,STARLINK-5011,PAYLOAD,2024-02-06 13:13:53,15.08844911,0.0001692,53.2168,135.0971,98.2153,261.9031,0.0001383,1.914e-05,0.0,0 STARLINK-5011,1 53925U 22119AR  24037.55131099  .00001914  00000-0  13830-3 0  9991,2 53925  53.2168 135.0971 0001692  98.2153 261.9031 15.08844911 76773,6917.865,95.437,540.901,538.56,0.0
53925.0,STARLINK-5011,PAYLOAD,2024-02-07 13:04:40,15.08847031,0.000175,53.218,130.6409,112.4136,247.7042,-9.5161e-05,-1.803e-05,0.0,0 STARLINK-5011,1 53925U 22119AR  24038.54490829 -.00001803  00000-0 -95161-4 0  9997,2 53925  53.2180 130.6409 0001750 112.4136 247.7042 15.08847031 76500,6917.859,95.437,540.935,538.513,0.0
53925.0,STARLINK-5011,PAYLOAD,2024-02-08 11:20:04,15.08839227,0.0001419,53.2173,126.4748,91.0575,269.058,4.8186e-05,4.79e-06,0.0,0 STARLINK-5011,1 53925U 22119AR  24039.47227601  .00000479  00000-0  48186-4 0  9997,2 53925  53.2173 126.4748 0001419  91.0575 269.0580 15.08839227 76649,6917.883,95.438,540.729,538.766,0.0
53925.0,STARLINK-5011,PAYLOAD,2024-02-09 12:46:15,15.08826946,0.0001508,53.217,121.7159,98.7141,261.4022,0.0002011,2.913e-05,0.0,0 STARLINK-5011,1 53925U 22119AR  24040.53212211  .00002913  00000-0  20110-3 0  9998,2 53925  53.2170 121.7159 0001508  98.7141 261.4022 15.08826946 77228,6917.92,95.438,540.829,538.742,0.0
53925.0,STARLINK-5011,PAYLOAD,2024-02-10 11:01:39,15.08839757,0.0001641,53.2176,117.5536,71.0201,289.0969,0.00012971,1.777e-05,0.0,0 STARLINK-5011,1 53925U 22119AR  24041.45948083  .00001777  00000-0  12971-3 0  9996,2 53925  53.2176 117.5536 0001641  71.0201 289.0969 15.08839757 76943,6917.881,95.438,540.881,538.611,0.0
53925.0,STARLINK-5011,PAYLOAD,2024-02-10 12:37:02,15.08843283,0.0001795,53.2174,117.2555,78.0276,282.0917,0.00014971,2.096e-05,0.0,0 STARLINK-5011,1 53925U 22119AR  24041.52571877  .00002096  00000-0  14971-3 0  9994,2 53925  53.2174 117.2555 0001795  78.0276 282.0917 15.08843283 77371,6917.87,95.437,540.977,538.494,0.0
53925.0,STARLINK-5011,PAYLOAD,2024-02-11 10:52:25,15.0884459,0.0001588,53.2168,113.0923,77.8919,282.2251,0.00012003,1.623e-05,0.0,0 STARLINK-5011,1 53925U 22119AR  24042.45307753  .00001623  00000-0  12003-3 0  9996,2 53925  53.2168 113.0923 0001588  77.8919 282.2251 15.08844590 77519,6917.866,95.437,540.83,538.633,0.0
53925.0,STARLINK-5011,PAYLOAD,2024-02-12 04:21:40,15.08849564,0.0001459,53.217,109.8166,92.3627,267.7532,1.1509e-05,-1.05e-06,0.0,0 STARLINK-5011,1 53925U 22119AR  24043.18171462 -.00000105  00000-0  11509-4 0  9999,2 53925  53.2170 109.8166 0001459  92.3627 267.7532 15.08849564 77201,6917.851,95.437,540.725,538.707,0.0
53925.0,STARLINK-5011,PAYLOAD,2024-02-12 10:43:12,15.08851031,0.0001911,53.2171,108.6308,67.7845,292.3349,9.1964e-05,1.176e-05,0.0,0 STARLINK-5011,1 53925U 22119AR  24043.44667329  .00001176  00000-0  91964-4 0  9991,2 53925  53.2171 108.6308 0001911  67.7845 292.3349 15.08851031 77660,6917.847,95.437,541.034,538.39,0.0
53925.0,STARLINK-5011,PAYLOAD,2024-02-13 04:12:27,15.08844201,0.0001751,53.2176,105.3552,126.1489,233.9665,-0.00010477,-1.955e-05,0.0,0 STARLINK-5011,1 53925U 22119AR  24044.17531796 -.00001955  00000-0 -10477-3 0  9996,2 53925  53.2176 105.3552 0001751 126.1489 233.9665 15.08844201 77355,6917.868,95.437,540.944,538.521,0.0
53925.0,STARLINK-5011,PAYLOAD,2024-02-13 13:44:46,15.08845959,0.0001505,53.2171,103.5708,112.2475,247.8677,-6.9245e-05,-1.39e-05,0.0,0 STARLINK-5011,1 53925U 22119AR  24044.57275667 -.00001390  00000-0 -69245-4 0  9993,2 53925  53.2171 103.5708 0001505 112.2475 247.8677 15.08845959 77832,6917.862,95.437,540.768,538.686,0.0
53925.0,STARLINK-5011,PAYLOAD,2024-02-14 10:24:47,15.08839533,0.0001495,53.2164,99.708,86.7468,273.3695,-2.6142e-06,-3.3e-06,0.0,0 STARLINK-5011,1 53925U 22119AR  24045.43388234 -.00000330  00000-0 -26142-5 0  9997,2 53925  53.2164  99.7080 0001495  86.7468 273.3695 15.08839533 77541,6917.882,95.438,540.781,538.713,0.0
53925.0,STARLINK-5011,PAYLOAD,2024-02-14 19:57:05,15.08845353,0.000161,53.2171,97.9235,87.8414,272.2763,-3.9882e-06,-3.52e-06,0.0,0 STARLINK-5011,1 53925U 22119AR  24045.83131858 -.00000352  00000-0 -39882-5 0  9998,2 53925  53.2171  97.9235 0001610  87.8414 272.2763 15.08845353 78028,6917.864,95.437,540.843,538.615,0.0
53925.0,STARLINK-5011,PAYLOAD,2024-02-15 03:54:02,15.08826432,0.0001677,53.2181,96.4384,96.7068,263.4115,6.1402e-05,6.89e-06,0.0,0 STARLINK-5011,1 53925U 22119AR  24046.16253281  .00000689  00000-0  61402-4 0  9993,2 53925  53.2181  96.4384 0001677  96.7068 263.4115 15.08826432 77653,6917.922,95.438,540.947,538.627,0.0
53925.0,STARLINK-5011,PAYLOAD,2024-02-15 10:15:35,15.08830301,0.0001706,53.219,95.2494,100.7415,259.377,9.4249e-05,1.212e-05,0.0,0 STARLINK-5011,1 53925U 22119AR  24046.42749029  .00001212  00000-0  94249-4 0  9990,2 53925  53.2190  95.2494 0001706 100.7415 259.3770 15.08830301 78110,6917.91,95.438,540.955,538.595,0.0
53925.0,STARLINK-5011,PAYLOAD,2024-02-15 19:47:53,15.08836276,0.0001718,53.2178,93.4636,90.5537,269.5652,4.9454e-05,4.99e-06,0.0,0 STARLINK-5011,1 53925U 22119AR  24046.82492950  .00000499  00000-0  49454-4 0  9996,2 53925  53.2178  93.4636 0001718  90.5537 269.5652 15.08836276 77756,6917.892,95.438,540.945,538.568,0.0
53925.0,STARLINK-5011,PAYLOAD,2024-02-16 08:30:58,15.08845699,0.0001699,53.2177,91.085,97.114,263.0045,7.9404e-05,9.76e-06,0.0,0 STARLINK-5011,1 53925U 22119AR  24047.35484522  .00000976  00000-0  79404-4 0  9999,2 53925  53.2177  91.0850 0001699  97.1140 263.0045 15.08845699 77831,6917.863,95.437,540.903,538.553,0.0
53925.0,STARLINK-5011,PAYLOAD,2024-02-17 11:32:32,15.08842507,0.0001842,53.217,86.0271,102.5764,257.5434,8.5567e-05,1.074e-05,0.0,0 STARLINK-5011,1 53925U 22119AR  24048.48092841  .00001074  00000-0  85567-4 0  9990,2 53925  53.2170  86.0271 0001842 102.5764 257.5434 15.08842507 78003,6917.873,95.437,541.012,538.463,0.0
53925.0,STARLINK-5011,PAYLOAD,2024-02-17 19:29:27,15.0884205,0.0001677,53.2173,84.5418,88.4719,271.6465,9.7207e-05,1.259e-05,0.0,0 STARLINK-5011,1 53925U 22119AR  24048.81212947  .00001259  00000-0  97207-4 0  9997,2 53925  53.2173  84.5418 0001677  88.4719 271.6465 15.08842050 78475,6917.874,95.437,540.899,538.579,0.0
53925.0,STARLINK-5011,PAYLOAD,2024-02-18 01:51:00,15.08839926,0.0001712,53.2181,83.3539,89.3303,270.7885,6.6134e-05,7.65e-06,0.0,0 STARLINK-5011,1 53925U 22119AR  24049.07709214  .00000765  00000-0  66134-4 0  9990,2 53925  53.2181  83.3539 0001712  89.3303 270.7885 15.08839926 78096,6917.881,95.438,540.93,538.561,0.0
53925.0,STARLINK-5011,PAYLOAD,2024-02-18 11:23:18,15.08848941,0.0001626,53.2157,81.568,95.2955,264.8222,7.9827e-05,9.83e-06,0.0,0 STARLINK-5011,1 53925U 22119AR  24049.47452431  .00000983  00000-0  79827-4 0  9995,2 53925  53.2157  81.5680 0001626  95.2955 264.8222 15.08848941 78578,6917.853,95.437,540.843,538.593,0.0
53925.0,STARLINK-5011,PAYLOAD,2024-02-18 19:20:15,15.08840501,0.0001651,53.2165,80.0787,90.7767,269.3414,8.3955e-05,1.048e-05,0.0,0 STARLINK-5011,1 53925U 22119AR  24049.80572962  .00001048  00000-0  83955-4 0  9994,2 53925  53.2165  80.0787 0001651  90.7767 269.3414 15.08840501 78205,6917.879,95.438,540.886,538.602,0.0
53925.0,STARLINK-5011,PAYLOAD,2024-02-19 08:03:20,15.08844108,0.0001832,53.2178,77.7033,87.4432,272.677,5.2683e-05,5.51e-06,0.0,0 STARLINK-5011,1 53925U 22119AR  24050.33564863  .00000551  00000-0  52683-4 0  9997,2 53925  53.2178  77.7033 0001832  87.4432 272.6770 15.08844108 78703,6917.868,95.437,541.0,538.465,0.0
